{
  "type": "FeatureCollection",
  "features": [
    {
      "type": "Feature",
      "properties": {
        "norad_id": 37484,
        "name": "COSMOS 2251 DEB",
        "group": "cosmos-2251-debris",
        "lat": 51.587477493376895,
        "lon": -120.45533772300908,
        "alt_km": 774.6037300426015,
        "timestamp": "2025-12-07T14:37:05.601262+00:00",
        "meta_object_name": "COSMOS 2251 DEB",
        "meta_object_id": "1993-036BLM",
        "meta_epoch": "2025-12-06T08:56:33.254304",
        "meta_mean_motion": 14.41742642,
        "meta_eccentricity": 0.00400909,
        "meta_inclination": 73.8227,
        "meta_ra_of_asc_node": 220.3904,
        "meta_arg_of_pericenter": 256.1563,
        "meta_mean_anomaly": 223.2643,
        "meta_ephemeris_type": 0,
        "meta_classification_type": "U",
        "meta_norad_cat_id": 37484,
        "meta_element_set_no": 999,
        "meta_rev_at_epoch": 65287,
        "meta_bstar": 0.0013292575,
        "meta_mean_motion_dot": 4.354e-05,
        "meta_mean_motion_ddot": 0,
        "tle_line1": "1 37484U 93036BLM 25340.37260711  .00004354  00000+0  13293-2 0  9993",
        "tle_line2": "2 37484  73.8227 220.3904 0040090 256.1563 223.2643 14.41742642652873"
      },
      "geometry": {
        "type": "Point",
        "coordinates": [
          -120.45533772300908,
          51.587477493376895
        ]
      }
    },
    {
      "type": "Feature",
      "properties": {
        "norad_id": 37486,
        "name": "COSMOS 2251 DEB",
        "group": "cosmos-2251-debris",
        "lat": 55.13586677635215,
        "lon": -80.97802055667762,
        "alt_km": 942.6702608360811,
        "timestamp": "2025-12-07T14:37:05.601272+00:00",
        "meta_object_name": "COSMOS 2251 DEB",
        "meta_object_id": "1993-036BLP",
        "meta_epoch": "2025-12-05T16:15:13.753728",
        "meta_mean_motion": 14.1323143,
        "meta_eccentricity": 0.02290372,
        "meta_inclination": 73.6892,
        "meta_ra_of_asc_node": 127.3665,
        "meta_arg_of_pericenter": 356.725,
        "meta_mean_anomaly": 17.5084,
        "meta_ephemeris_type": 0,
        "meta_classification_type": "U",
        "meta_norad_cat_id": 37486,
        "meta_element_set_no": 999,
        "meta_rev_at_epoch": 63270,
        "meta_bstar": 0.0031719607,
        "meta_mean_motion_dot": 7.607e-05,
        "meta_mean_motion_ddot": 0,
        "tle_line1": "1 37486U 93036BLP 25339.67724252  .00007607  00000+0  31720-2 0  9990",
        "tle_line2": "2 37486  73.6892 127.3665 0229037 356.7250  17.5084 14.13231430632701"
      },
      "geometry": {
        "type": "Point",
        "coordinates": [
          -80.97802055667762,
          55.13586677635215
        ]
      }
    },
    {
      "type": "Feature",
      "properties": {
        "norad_id": 37487,
        "name": "COSMOS 2251 DEB",
        "group": "cosmos-2251-debris",
        "lat": 43.3560167128464,
        "lon": -141.8869037449495,
        "alt_km": 605.5074925220688,
        "timestamp": "2025-12-07T14:37:05.601282+00:00",
        "meta_object_name": "COSMOS 2251 DEB",
        "meta_object_id": "1993-036BLQ",
        "meta_epoch": "2025-12-06T07:36:14.773824",
        "meta_mean_motion": 14.80609361,
        "meta_eccentricity": 0.00252454,
        "meta_inclination": 73.9019,
        "meta_ra_of_asc_node": 204.8571,
        "meta_arg_of_pericenter": 44.15,
        "meta_mean_anomaly": 316.1684,
        "meta_ephemeris_type": 0,
        "meta_classification_type": "U",
        "meta_norad_cat_id": 37487,
        "meta_element_set_no": 999,
        "meta_rev_at_epoch": 81150,
        "meta_bstar": 0.0050036629,
        "meta_mean_motion_dot": 0.00038806,
        "meta_mean_motion_ddot": 0,
        "tle_line1": "1 37487U 93036BLQ 25340.31683766  .00038806  00000+0  50037-2 0  9995",
        "tle_line2": "2 37487  73.9019 204.8571 0025245  44.1500 316.1684 14.80609361811501"
      },
      "geometry": {
        "type": "Point",
        "coordinates": [
          -141.8869037449495,
          43.3560167128464
        ]
      }
    },
    {
      "type": "Feature",
      "properties": {
        "norad_id": 37491,
        "name": "COSMOS 2251 DEB",
        "group": "cosmos-2251-debris",
        "lat": -42.24489294839285,
        "lon": -92.50319775900743,
        "alt_km": 802.2905106732769,
        "timestamp": "2025-12-07T14:37:05.601293+00:00",
        "meta_object_name": "COSMOS 2251 DEB",
        "meta_object_id": "1993-036BLU",
        "meta_epoch": "2025-12-03T14:48:31.500000",
        "meta_mean_motion": 13.75236476,
        "meta_eccentricity": 0.03180692,
        "meta_inclination": 73.9058,
        "meta_ra_of_asc_node": 289.3863,
        "meta_arg_of_pericenter": 284.0782,
        "meta_mean_anomaly": 72.518,
        "meta_ephemeris_type": 0,
        "meta_classification_type": "U",
        "meta_norad_cat_id": 37491,
        "meta_element_set_no": 999,
        "meta_rev_at_epoch": 55621,
        "meta_bstar": 0.0021635807,
        "meta_mean_motion_dot": 2.973e-05,
        "meta_mean_motion_ddot": 0,
        "tle_line1": "1 37491U 93036BLU 25337.61703125  .00002973  00000+0  21636-2 0  9990",
        "tle_line2": "2 37491  73.9058 289.3863 0318069 284.0782  72.5180 13.75236476556211"
      },
      "geometry": {
        "type": "Point",
        "coordinates": [
          -92.50319775900743,
          -42.24489294839285
        ]
      }
    },
    {
      "type": "Feature",
      "properties": {
        "norad_id": 37498,
        "name": "COSMOS 2251 DEB",
        "group": "cosmos-2251-debris",
        "lat": -24.650062430545965,
        "lon": -173.94815958235952,
        "alt_km": 713.965925253573,
        "timestamp": "2025-12-07T14:37:05.601303+00:00",
        "meta_object_name": "COSMOS 2251 DEB",
        "meta_object_id": "1993-036BMB",
        "meta_epoch": "2025-12-02T07:38:53.705760",
        "meta_mean_motion": 14.54689112,
        "meta_eccentricity": 0.00134342,
        "meta_inclination": 74.038,
        "meta_ra_of_asc_node": 203.6034,
        "meta_arg_of_pericenter": 264.7495,
        "meta_mean_anomaly": 95.2135,
        "meta_ephemeris_type": 0,
        "meta_classification_type": "U",
        "meta_norad_cat_id": 37498,
        "meta_element_set_no": 999,
        "meta_rev_at_epoch": 65203,
        "meta_bstar": 0.00080152077,
        "meta_mean_motion_dot": 3.406e-05,
        "meta_mean_motion_ddot": 0,
        "tle_line1": "1 37498U 93036BMB 25336.31867715  .00003406  00000+0  80152-3 0  9990",
        "tle_line2": "2 37498  74.0380 203.6034 0013434 264.7495  95.2135 14.54689112652037"
      },
      "geometry": {
        "type": "Point",
        "coordinates": [
          -173.94815958235952,
          -24.650062430545965
        ]
      }
    },
    {
      "type": "Feature",
      "properties": {
        "norad_id": 37499,
        "name": "COSMOS 2251 DEB",
        "group": "cosmos-2251-debris",
        "lat": -22.507640471289136,
        "lon": 158.39662678182063,
        "alt_km": 799.4649156398054,
        "timestamp": "2025-12-07T14:37:05.601313+00:00",
        "meta_object_name": "COSMOS 2251 DEB",
        "meta_object_id": "1993-036BMC",
        "meta_epoch": "2025-12-05T06:26:07.747872",
        "meta_mean_motion": 14.34331053,
        "meta_eccentricity": 0.00266878,
        "meta_inclination": 74.0375,
        "meta_ra_of_asc_node": 335.869,
        "meta_arg_of_pericenter": 54.1527,
        "meta_mean_anomaly": 306.2098,
        "meta_ephemeris_type": 0,
        "meta_classification_type": "U",
        "meta_norad_cat_id": 37499,
        "meta_element_set_no": 999,
        "meta_rev_at_epoch": 85042,
        "meta_bstar": 0.00027954752,
        "meta_mean_motion_dot": 7.63e-06,
        "meta_mean_motion_ddot": 0,
        "tle_line1": "1 37499U 93036BMC 25339.26814523  .00000763  00000+0  27955-3 0  9992",
        "tle_line2": "2 37499  74.0375 335.8690 0026687  54.1527 306.2098 14.34331053850421"
      },
      "geometry": {
        "type": "Point",
        "coordinates": [
          158.39662678182063,
          -22.507640471289136
        ]
      }
    },
    {
      "type": "Feature",
      "properties": {
        "norad_id": 37528,
        "name": "COSMOS 2251 DEB",
        "group": "cosmos-2251-debris",
        "lat": 56.88558134122933,
        "lon": 157.81098445523423,
        "alt_km": 729.6938239141737,
        "timestamp": "2025-12-07T14:37:05.601323+00:00",
        "meta_object_name": "COSMOS 2251 DEB",
        "meta_object_id": "1993-036BNH",
        "meta_epoch": "2025-12-06T16:49:14.647872",
        "meta_mean_motion": 14.5048578,
        "meta_eccentricity": 0.00209458,
        "meta_inclination": 74.0353,
        "meta_ra_of_asc_node": 133.4841,
        "meta_arg_of_pericenter": 282.1287,
        "meta_mean_anomaly": 77.7527,
        "meta_ephemeris_type": 0,
        "meta_classification_type": "U",
        "meta_norad_cat_id": 37528,
        "meta_element_set_no": 999,
        "meta_rev_at_epoch": 85843,
        "meta_bstar": 0.00085302244,
        "meta_mean_motion_dot": 3.32e-05,
        "meta_mean_motion_ddot": 0,
        "tle_line1": "1 37528U 93036BNH 25340.70086398  .00003320  00000+0  85302-3 0  9999",
        "tle_line2": "2 37528  74.0353 133.4841 0020945 282.1287  77.7527 14.50485780858438"
      },
      "geometry": {
        "type": "Point",
        "coordinates": [
          157.81098445523423,
          56.88558134122933
        ]
      }
    }
  ]
}